{
  "type": "FeatureCollection",
  "crs": {
    "type": "name",
    "properties": {
      "name": "urn:ogc:def:crs:EPSG::4326"
    }
  },
  "features": [
    {
      "type": "Feature",
      "id": "mmr_polbnda_adm3_250k_mimu_1.186",
      "geometry": {
        "type": "MultiPolygon",
        "coordinates": [
          [
            [
              [
                94.23243072010172,
                22.583005200029994
              ],
              [
                94.23136134524992,
                22.58380476208015
              ],
              [
                94.22923612674589,
                22.585393250797953
              ],
              [
                94.22750524297265,
                22.58783222118013
              ],
              [
                94.22432679064895,
                22.592310944794296
              ],
              [
                94.2180419306906,
                22.600854730861208
              ],
              [
                94.21404818267757,
                22.607114834282246
              ],
              [
                94.21397646444235,
                22.6075349516767
              ],
              [
                94.21362182129008,
                22.609591934120484
              ],
              [
                94.21322650090235,
                22.610521223375837
              ],
              [
                94.21287913686274,
                22.61133777811602
              ],
              [
                94.21199969882707,
                22.61340509017283
              ],
              [
                94.21056544204158,
                22.616589865629866
              ],
              [
                94.20931383576497,
                22.619369066629186
              ],
              [
                94.20897091707424,
                22.62013051900828
              ],
              [
                94.20861637734403,
                22.620608214597492
              ],
              [
                94.20723262288733,
                22.62247263870137
              ],
              [
                94.2069834045605,
                22.62280842396962
              ],
              [
                94.20497315988347,
                22.626844379864284
              ],
              [
                94.20399287996747,
                22.627279259630207
              ],
              [
                94.20398886809186,
                22.627515057374076
              ],
              [
                94.20396957313733,
                22.628633956092255
              ],
              [
                94.20290393137141,
                22.635156193903306
              ],
              [
                94.20085233406803,
                22.639943182631832
              ],
              [
                94.19955659356202,
                22.642966533378857
              ],
              [
                94.19923687198411,
                22.643321751197895
              ],
              [
                94.19390259722714,
                22.649248434567667
              ],
              [
                94.19442384878164,
                22.661711404957433
              ],
              [
                94.19355550658145,
                22.662477591367814
              ],
              [
                94.19337708018816,
                22.662635026685166
              ],
              [
                94.19307895313125,
                22.662898121551105
              ],
              [
                94.19273100003568,
                22.663205189667792
              ],
              [
                94.18784849611127,
                22.667513203071906
              ],
              [
                94.18683678129248,
                22.668405895315853
              ],
              [
                94.18480986228538,
                22.670697947052656
              ],
              [
                94.17685840928823,
                22.679689685430667
              ],
              [
                94.17634861509656,
                22.684695969343586
              ],
              [
                94.17445600803842,
                22.68694344258586
              ],
              [
                94.17277820674889,
                22.688935834820988
              ],
              [
                94.16474492084147,
                22.692283001759172
              ],
              [
                94.15521971991421,
                22.694789610152455
              ],
              [
                94.15215543382628,
                22.69559591531929
              ],
              [
                94.15202544042181,
                22.69563012013401
              ],
              [
                94.14795723573792,
                22.695739966926
              ],
              [
                94.14376919819,
                22.695853053076018
              ],
              [
                94.13528976041421,
                22.688711999858974
              ],
              [
                94.13149824474823,
                22.687147262236415
              ],
              [
                94.1300605318681,
                22.6874588656342
              ],
              [
                94.12954510342382,
                22.687570686438107
              ],
              [
                94.12681031994036,
                22.692059190179528
              ],
              [
                94.12143660001914,
                22.695616800275168
              ],
              [
                94.11999748959255,
                22.69601968935724
              ],
              [
                94.11900012615497,
                22.696298943241686
              ],
              [
                94.11852429755835,
                22.696731515347217
              ],
              [
                94.11654548508614,
                22.69853044092714
              ],
              [
                94.11565278744627,
                22.70410928181797
              ],
              [
                94.1176353635812,
                22.709509467887703
              ],
              [
                94.11796595076807,
                22.710409913186986
              ],
              [
                94.11852839037302,
                22.711645804710134
              ],
              [
                94.11966916869721,
                22.7141513024407
              ],
              [
                94.11966905897994,
                22.71928385026951
              ],
              [
                94.11624009240636,
                22.725309000410107
              ],
              [
                94.1159763302435,
                22.725772464227877
              ],
              [
                94.11574752023192,
                22.72617531014248
              ],
              [
                94.11562043973159,
                22.726273050261113
              ],
              [
                94.11556643993931,
                22.726207799950036
              ],
              [
                94.10940432035318,
                22.727317229706436
              ],
              [
                94.10494130159988,
                22.72865606842289
              ],
              [
                94.10371082219677,
                22.72871197297923
              ],
              [
                94.10003211029377,
                22.72887912637067
              ],
              [
                94.09891543110234,
                22.730274975809543
              ],
              [
                94.09735430066053,
                22.732226391334958
              ],
              [
                94.09887980086216,
                22.735447200827696
              ],
              [
                94.09936251286973,
                22.736466362932333
              ],
              [
                94.10449500044399,
                22.737582269606097
              ],
              [
                94.11007356074627,
                22.735127615946812
              ],
              [
                94.11555459496863,
                22.734377604742672
              ],
              [
                94.11609233019692,
                22.73430452043732
              ],
              [
                94.11966870464704,
                22.734904656025098
              ],
              [
                94.11980274230281,
                22.73637947223488
              ],
              [
                94.11989183993653,
                22.737359340261374
              ],
              [
                94.11966863989585,
                22.74226875010277
              ],
              [
                94.11952420158072,
                22.742846101366535
              ],
              [
                94.11931272869951,
                22.743691953321036
              ],
              [
                94.11810639969066,
                22.74851703913008
              ],
              [
                94.1176599951127,
                22.75387273304023
              ],
              [
                94.11739920161192,
                22.757262337187182
              ],
              [
                94.11699038509822,
                22.762575737780132
              ],
              [
                94.11823370682013,
                22.76677245378579
              ],
              [
                94.11877548000444,
                22.76860094997392
              ],
              [
                94.1152050482744,
                22.771055571257644
              ],
              [
                94.10828755122958,
                22.77127859413185
              ],
              [
                94.10773290155218,
                22.771223116753504
              ],
              [
                94.10159322184978,
                22.770609008399045
              ],
              [
                94.10205359289904,
                22.76846074206964
              ],
              [
                94.10226272304628,
                22.767484859838472
              ],
              [
                94.10490862203534,
                22.7651696928271
              ],
              [
                94.10761829914526,
                22.762798719285513
              ],
              [
                94.10815530862067,
                22.76175597335952
              ],
              [
                94.10932873323453,
                22.759472616268283
              ],
              [
                94.10650267126137,
                22.75788930674618
              ],
              [
                94.10514682186839,
                22.75819059402073
              ],
              [
                94.10273239488417,
                22.75872710886905
              ],
              [
                94.10259077144701,
                22.758758579744715
              ],
              [
                94.10248604539476,
                22.75878185599788
              ],
              [
                94.09735368012832,
                22.75878176966301
              ],
              [
                94.09568357703552,
                22.758022532314047
              ],
              [
                94.09244457695569,
                22.756550122690037
              ],
              [
                94.08686605172699,
                22.75208693486422
              ],
              [
                94.08275711944556,
                22.750244822940257
              ],
              [
                94.08226898272744,
                22.750025988208847
              ],
              [
                94.08039491519327,
                22.74918581007711
              ],
              [
                94.07848139440091,
                22.742761726972155
              ],
              [
                94.07801951968514,
                22.7414033100148
              ],
              [
                94.07609711988624,
                22.74001883969777
              ],
              [
                94.07552622125814,
                22.737740109618418
              ],
              [
                94.07518687557395,
                22.7363941869422
              ],
              [
                94.07451151979086,
                22.73618770439908
              ],
              [
                94.06812226203283,
                22.734234251009916
              ],
              [
                94.05741138322884,
                22.730886739631387
              ],
              [
                94.05347998970983,
                22.73210679858994
              ],
              [
                94.05094032043952,
                22.732894979719557
              ],
              [
                94.04601770405384,
                22.73446120482077
              ],
              [
                94.04597245556441,
                22.73447560206744
              ],
              [
                94.0411217031042,
                22.736018988885295
              ],
              [
                94.02884873428172,
                22.736241918229997
              ],
              [
                94.01389801518134,
                22.736687953186557
              ],
              [
                94.0078732013872,
                22.737134157215625
              ],
              [
                94.00285914463389,
                22.754232419590547
              ],
              [
                94.00382422780592,
                22.75470134589046
              ],
              [
                94.00427812373647,
                22.756513299948885
              ],
              [
                94.00523549881926,
                22.757429039118886
              ],
              [
                94.0062208581062,
                22.762439724313882
              ],
              [
                94.00657078071706,
                22.76421913280678
              ],
              [
                94.00782102721872,
                22.77018877858933
              ],
              [
                94.008095617219,
                22.77149987861658
              ],
              [
                94.00675662741651,
                22.777078709614777
              ],
              [
                94.00140093980161,
                22.787120551272483
              ],
              [
                94.00042056275886,
                22.788635675096387
              ],
              [
                93.99890176520438,
                22.790982902938655
              ],
              [
                93.99761786517242,
                22.79296710774587
              ],
              [
                93.99649176018666,
                22.79470769970062
              ],
              [
                93.99582216006468,
                22.79738555969589
              ],
              [
                93.99564900010131,
                22.802854423393004
              ],
              [
                93.99460783338488,
                22.806447893055864
              ],
              [
                93.99362733403427,
                22.806882869948545
              ],
              [
                93.99311614139687,
                22.808229358298323
              ],
              [
                93.99255301470994,
                22.808478328412154
              ],
              [
                93.99225198194347,
                22.808611652006142
              ],
              [
                93.99213299174424,
                22.80866245470855
              ],
              [
                93.99188403062357,
                22.80931901735879
              ],
              [
                93.99162097262985,
                22.810010846023772
              ],
              [
                93.99059087656775,
                22.813154061111117
              ],
              [
                93.98995399288255,
                22.821264353267328
              ],
              [
                93.98734191020104,
                22.830412210355306
              ],
              [
                93.98890403978966,
                22.833090092833558
              ],
              [
                93.9909053209239,
                22.833134605677575
              ],
              [
                93.9989455217185,
                22.833313461047457
              ],
              [
                94.00738821589353,
                22.834974548436715
              ],
              [
                94.00799229320984,
                22.83509340014035
              ],
              [
                94.00826365104673,
                22.83514678929292
              ],
              [
                94.01255715029231,
                22.8359915305847
              ],
              [
                94.01291266668632,
                22.837510766109
              ],
              [
                94.01323356008079,
                22.838881949842186
              ],
              [
                94.01501151796727,
                22.846479825383717
              ],
              [
                94.0172428312917,
                22.852728183658822
              ],
              [
                94.0162255199918,
                22.85696745018771
              ],
              [
                94.01606444601742,
                22.857637871390693
              ],
              [
                94.01590384328779,
                22.858307015556356
              ],
              [
                94.0149743426918,
                22.86208740121266
              ],
              [
                94.01418808701067,
                22.86528519885291
              ],
              [
                94.01265277070888,
                22.871529510178803
              ],
              [
                94.01238799231203,
                22.872606398866257
              ],
              [
                94.01036623991013,
                22.876638243959853
              ],
              [
                94.0103431830915,
                22.877993063629056
              ],
              [
                94.01041689062708,
                22.8796633528815
              ],
              [
                94.01054783821226,
                22.88263072982437
              ],
              [
                94.01032464986275,
                22.88463911470342
              ],
              [
                94.00905330706452,
                22.886026036572385
              ],
              [
                94.00786999980073,
                22.88731691984002
              ],
              [
                94.00570827601621,
                22.889869845117286
              ],
              [
                94.00325196040971,
                22.892770673128094
              ],
              [
                94.00495284190022,
                22.895404639912265
              ],
              [
                94.00563834743183,
                22.89646620505135
              ],
              [
                94.00864612102175,
                22.901035858218343
              ],
              [
                94.0113084488259,
                22.905080681428334
              ],
              [
                94.01126348542158,
                22.907529093792686
              ],
              [
                94.01121666401787,
                22.910078714061438
              ],
              [
                94.00719993382995,
                22.915880648872882
              ],
              [
                94.00273691417732,
                22.921682575590467
              ],
              [
                94.00198018144027,
                22.921970760642132
              ],
              [
                94.00131512379397,
                22.92222403311267
              ],
              [
                93.99487469730951,
                22.92467740883542
              ],
              [
                93.99537296399116,
                22.929269686247096
              ],
              [
                93.99202565855734,
                22.93551794199948
              ],
              [
                93.99150497267642,
                22.9378845529298
              ],
              [
                93.99073275541241,
                22.94139442611193
              ],
              [
                93.9900725001458,
                22.944395405323743
              ],
              [
                93.9895708259329,
                22.946675605794614
              ],
              [
                93.99470320558851,
                22.948684080605865
              ],
              [
                94.00251319163056,
                22.948014770964953
              ],
              [
                94.00529586041569,
                22.945814208159227
              ],
              [
                94.0066851600921,
                22.944715563072794
              ],
              [
                94.01456305574048,
                22.94578345224459
              ],
              [
                94.01947222186561,
                22.94667615977699
              ],
              [
                94.02273922773323,
                22.94781467360839
              ],
              [
                94.0234856830179,
                22.948074805208144
              ],
              [
                94.02367589322796,
                22.948141140101605
              ],
              [
                94.02549702936449,
                22.951362508972643
              ],
              [
                94.02407479291742,
                22.952429187656943
              ],
              [
                94.02062763665617,
                22.95501455867496
              ],
              [
                94.01835628281627,
                22.956718078776376
              ],
              [
                94.01768674564687,
                22.9614043038656
              ],
              [
                94.02042554730122,
                22.966138933165272
              ],
              [
                94.0172402889083,
                22.968768386252066
              ],
              [
                94.01457624519757,
                22.96843531603708
              ],
              [
                94.01188482882186,
                22.968098823002315
              ],
              [
                94.01073653666191,
                22.968098803217224
              ],
              [
                94.00585992059894,
                22.968098712385714
              ],
              [
                94.0013969594022,
                22.971222789899898
              ],
              [
                93.99581832175818,
                22.97211530407804
              ],
              [
                93.98960676284189,
                22.972425480251804
              ],
              [
                93.98934705662138,
                22.97523934202206
              ],
              [
                93.99165682770054,
                22.977395305648884
              ],
              [
                93.99269412013757,
                22.978363590407405
              ],
              [
                94.00063104009045,
                22.982526539568205
              ],
              [
                93.9989419199337,
                22.989298230429025
              ],
              [
                93.99880910265803,
                22.993016347026867
              ],
              [
                93.9987187162958,
                22.99554657431503
              ],
              [
                94.002013559778,
                22.99869191270164
              ],
              [
                94.00069276056253,
                23.00152216011962
              ],
              [
                94.00050024898735,
                23.003252972846493
              ],
              [
                94.00035797893766,
                23.004534735189903
              ],
              [
                94.00018617425258,
                23.006166609901193
              ],
              [
                94.00002319191687,
                23.00771467679096
              ],
              [
                94.0021987526704,
                23.01240095404086
              ],
              [
                94.00219868432194,
                23.01558090103781
              ],
              [
                94.00210945358845,
                23.018256179079458
              ],
              [
                94.0020312170671,
                23.020601868181707
              ],
              [
                94.0031586539488,
                23.02623992133532
              ],
              [
                94.00353728112073,
                23.02813334857523
              ],
              [
                94.00355407595988,
                23.028688001849837
              ],
              [
                94.00361739003056,
                23.03077895798259
              ],
              [
                94.00361839097604,
                23.0308119900813
              ],
              [
                94.00370452084701,
                23.03365641800935
              ],
              [
                94.0034681817113,
                23.03586188841548
              ],
              [
                94.00320234391309,
                23.038342645796483
              ],
              [
                94.00179963984156,
                23.04599314606691
              ],
              [
                94.00136118077393,
                23.048384551306075
              ],
              [
                94.00353675861457,
                23.05223400039887
              ],
              [
                94.00454079682038,
                23.05742235295929
              ],
              [
                94.00324507969675,
                23.06236334699093
              ],
              [
                94.00251951476383,
                23.06513016432569
              ],
              [
                94.00251262505763,
                23.065500643639833
              ],
              [
                94.00247758657143,
                23.067384761997243
              ],
              [
                94.00228287615386,
                23.0678150138519
              ],
              [
                94.0016401162984,
                23.069235328447704
              ],
              [
                94.00146264498511,
                23.069627467933348
              ],
              [
                93.99935233364334,
                23.072652534586837
              ],
              [
                93.99902814333421,
                23.07407893129773
              ],
              [
                93.99767859818883,
                23.080016587295745
              ],
              [
                93.9953362401754,
                23.0844208767221
              ],
              [
                93.994658973333,
                23.085119732689574
              ],
              [
                93.9938220003851,
                23.085983519823635
              ],
              [
                93.99021084015823,
                23.083919906678382
              ],
              [
                93.98591201422812,
                23.083747864572345
              ],
              [
                93.98161301562821,
                23.085983303986325
              ],
              [
                93.97697012077452,
                23.090110324332056
              ],
              [
                93.97679836285418,
                23.09072841128722
              ],
              [
                93.9756295733462,
                23.094934419088247
              ],
              [
                93.97412254881664,
                23.09847079619032
              ],
              [
                93.97387472623767,
                23.099052335596873
              ],
              [
                93.97395992171309,
                23.1001034101443
              ],
              [
                93.97439045505553,
                23.105414975220977
              ],
              [
                93.97414412804915,
                23.107631572039455
              ],
              [
                93.97404899956172,
                23.108488199670706
              ],
              [
                93.97397155534307,
                23.109184488973025
              ],
              [
                93.97387448701802,
                23.110057961805516
              ],
              [
                93.97248414412805,
                23.115850753209763
              ],
              [
                93.97181083160467,
                23.118656069621984
              ],
              [
                93.97314195413794,
                23.120403313861903
              ],
              [
                93.97456204390329,
                23.12226734136475
              ],
              [
                93.97701439080159,
                23.12518874406533
              ],
              [
                93.97691402736051,
                23.125841857815555
              ],
              [
                93.97647867814852,
                23.128674885937315
              ],
              [
                93.97646101996015,
                23.128789795912386
              ],
              [
                93.9743406613925,
                23.13010904020007
              ],
              [
                93.97146662598409,
                23.131897208089768
              ],
              [
                93.97026283576135,
                23.13654018298308
              ],
              [
                93.96955509269344,
                23.13795565203178
              ],
              [
                93.96785535064396,
                23.14135509925848
              ],
              [
                93.96183678533944,
                23.14685779994756
              ],
              [
                93.96153738304385,
                23.15015056599589
              ],
              [
                93.96132079481892,
                23.152532565225783
              ],
              [
                93.9637280991725,
                23.155971867707606
              ],
              [
                93.96665122767207,
                23.16130277180555
              ],
              [
                93.96540055129448,
                23.16413759677271
              ],
              [
                93.96407176609921,
                23.16714946227792
              ],
              [
                93.95908503974283,
                23.167837219711984
              ],
              [
                93.95427585664557,
                23.16652547307216
              ],
              [
                93.95423811030061,
                23.1665151767341
              ],
              [
                93.95341054516058,
                23.166289448699157
              ],
              [
                93.95065920335958,
                23.168352952127062
              ],
              [
                93.95050294255682,
                23.168755620875224
              ],
              [
                93.94800313663552,
                23.17519738555096
              ],
              [
                93.94618823819667,
                23.179874404280387
              ],
              [
                93.94876747493909,
                23.181594042930783
              ],
              [
                93.95277405178113,
                23.18194253112295
              ],
              [
                93.9566775492296,
                23.18228208095331
              ],
              [
                93.9611482329047,
                23.183657826947183
              ],
              [
                93.96265099914433,
                23.18541120186553
              ],
              [
                93.96321164819912,
                23.186065347138076
              ],
              [
                93.96200775635293,
                23.19535132030722
              ],
              [
                93.96080303623118,
                23.197680425011637
              ],
              [
                93.95942831636376,
                23.200338240017807
              ],
              [
                93.95925622209705,
                23.20670082028669
              ],
              [
                93.95890429489737,
                23.207454935097253
              ],
              [
                93.95564498272985,
                23.21443907999958
              ],
              [
                93.95524555603767,
                23.216702303068868
              ],
              [
                93.95461312129856,
                23.22028579835096
              ],
              [
                93.95610173041058,
                23.222984150298366
              ],
              [
                93.95736430212087,
                23.225272772920153
              ],
              [
                93.96032440444776,
                23.22688751464716
              ],
              [
                93.96114727962333,
                23.22733639775658
              ],
              [
                93.9648468306168,
                23.227105236017902
              ],
              [
                93.96664986699784,
                23.2269925752472
              ],
              [
                93.96817237155778,
                23.226936212935918
              ],
              [
                93.97129269260377,
                23.226820745381115
              ],
              [
                93.97189443438073,
                23.228174799727302
              ],
              [
                93.97198045093711,
                23.228368378797715
              ],
              [
                93.97256636104878,
                23.22895432668088
              ],
              [
                93.97610730490824,
                23.232495563719333
              ],
              [
                93.98023419844958,
                23.23438723188531
              ],
              [
                93.98530031965407,
                23.23000488861476
              ],
              [
                93.98533368989791,
                23.229978056442185
              ],
              [
                93.98535659203316,
                23.229959641024646
              ],
              [
                93.98581847933941,
                23.22958823900609
              ],
              [
                93.98883206075108,
                23.22716501125631
              ],
              [
                93.99037968157711,
                23.228712629384397
              ],
              [
                93.99020767814187,
                23.23180797535781
              ],
              [
                93.99011209909418,
                23.23572338612541
              ],
              [
                93.990041280181,
                23.238628559660345
              ],
              [
                93.99003744367316,
                23.238781643158347
              ],
              [
                93.99003556858668,
                23.238858449757682
              ],
              [
                93.99175498870181,
                23.245049145301895
              ],
              [
                93.99175487988384,
                23.25003005484318
              ],
              [
                93.99175484570964,
                23.251583734401898
              ],
              [
                93.99183156777269,
                23.25164219573082
              ],
              [
                93.99202668738178,
                23.251790871651444
              ],
              [
                93.99536585215242,
                23.254335206604544
              ],
              [
                93.99728824925336,
                23.25445783636014
              ],
              [
                93.99732578875421,
                23.254460231254715
              ],
              [
                93.99949064397812,
                23.254598325752173
              ],
              [
                93.99949761822059,
                23.25488101504686
              ],
              [
                93.99976903631205,
                23.265882318214445
              ],
              [
                94.00009745793143,
                23.2663557240375
              ],
              [
                94.00071923840221,
                23.267251982992658
              ],
              [
                94.00340627058296,
                23.271105199345527
              ],
              [
                94.00458111882364,
                23.277860579202418
              ],
              [
                94.00076286091736,
                23.284909670444957
              ],
              [
                94.0010377908614,
                23.285871921651896
              ],
              [
                94.00135028638665,
                23.28696565464128
              ],
              [
                94.01045536092624,
                23.29049020026257
              ],
              [
                94.00634339073497,
                23.303413530010463
              ],
              [
                94.00399369335435,
                23.311931183577325
              ],
              [
                94.00340627058296,
                23.326029364263782
              ],
              [
                94.00425644827652,
                23.335988595097646
              ],
              [
                94.00546225298064,
                23.35011375544553
              ],
              [
                94.00340627058296,
                23.371261025575915
              ],
              [
                93.99780072612266,
                23.374034218204663
              ],
              [
                93.99035848275781,
                23.378453034380072
              ],
              [
                93.98916296629788,
                23.37994742973012
              ],
              [
                93.98756772007424,
                23.3819415900324
              ],
              [
                93.98685201171108,
                23.382836121389904
              ],
              [
                93.98570702006299,
                23.384267361849325
              ],
              [
                93.98300635236133,
                23.386427896730083
              ],
              [
                93.98105567967595,
                23.38798851006175
              ],
              [
                93.9788593104089,
                23.388459109100644
              ],
              [
                93.97779965183254,
                23.388686167232898
              ],
              [
                93.9729935606044,
                23.390439694136607
              ],
              [
                93.97198926789048,
                23.391650512561178
              ],
              [
                93.9705901197383,
                23.39333756967319
              ],
              [
                93.96825745821519,
                23.393761630594845
              ],
              [
                93.96803172658299,
                23.393802670257067
              ],
              [
                93.9660261152131,
                23.39538604902697
              ],
              [
                93.96361288072991,
                23.397291234003312
              ],
              [
                93.95958568603068,
                23.398572585356593
              ],
              [
                93.95849637770573,
                23.39891917507992
              ],
              [
                93.95718666982901,
                23.39961768300968
              ],
              [
                93.95500787961004,
                23.4007797608773
              ],
              [
                93.95686833410639,
                23.40240779278549
              ],
              [
                93.95839263910909,
                23.40240782156377
              ],
              [
                93.96058940137983,
                23.4024078629326
              ],
              [
                93.96617111830254,
                23.401245053916167
              ],
              [
                93.97175256003266,
                23.39915202034951
              ],
              [
                93.97341362403955,
                23.398217721870424
              ],
              [
                93.97547379098272,
                23.397058881562206
              ],
              [
                93.97813339024385,
                23.395782284025245
              ],
              [
                93.98128802222453,
                23.394268073912535
              ],
              [
                93.98570679343383,
                23.394268159348137
              ],
              [
                93.98826497255048,
                23.396593968936546
              ],
              [
                93.99198603083073,
                23.39705919272763
              ],
              [
                94.00028410232954,
                23.39493746988835
              ],
              [
                94.00344192330618,
                23.394159370158825
              ],
              [
                94.00372120237165,
                23.39409055583451
              ],
              [
                94.00423614158474,
                23.392744081873953
              ],
              [
                94.00571219166437,
                23.392316803177962
              ],
              [
                94.0062160179549,
                23.391423956250613
              ],
              [
                94.0076920662359,
                23.39099667755466
              ],
              [
                94.00819588982851,
                23.39010044018325
              ],
              [
                94.008602862732,
                23.389982629894533
              ],
              [
                94.00967193541157,
                23.38967315878932
              ],
              [
                94.01068285972626,
                23.387884099671503
              ],
              [
                94.01319303033414,
                23.3843136319686
              ],
              [
                94.0147110967398,
                23.381631737614654
              ],
              [
                94.0152226230257,
                23.38028525196284
              ],
              [
                94.01573525008179,
                23.380059523028585
              ],
              [
                94.01621033493905,
                23.37985032543224
              ],
              [
                94.01622576640608,
                23.378949842361404
              ],
              [
                94.01722900871187,
                23.37761101533614
              ],
              [
                94.01899005304858,
                23.377484252296483
              ],
              [
                94.01985414685146,
                23.373904436140894
              ],
              [
                94.0172107389845,
                23.367149058981926
              ],
              [
                94.02073528370643,
                23.36597420804333
              ],
              [
                94.02425983022705,
                23.37272958879953
              ],
              [
                94.02403462200027,
                23.377121140228493
              ],
              [
                94.02490400021952,
                23.3770585618032
              ],
              [
                94.02495402320966,
                23.37705496091774
              ],
              [
                94.02543467666908,
                23.379778679142767
              ],
              [
                94.02954664686031,
                23.38477178439041
              ],
              [
                94.02602210213837,
                23.391233450163668
              ],
              [
                94.02602210213837,
                23.395345420354932
              ],
              [
                94.03053379669741,
                23.40332764815247
              ],
              [
                94.03037801523328,
                23.40669801400219
              ],
              [
                94.02837180041831,
                23.412380721193358
              ],
              [
                94.03100671508787,
                23.42547237165268
              ],
              [
                94.03659573810289,
                23.43205943169744
              ],
              [
                94.03577374516226,
                23.43750796891767
              ],
              [
                94.03510078966976,
                23.44196861436013
              ],
              [
                94.03586598772522,
                23.443826745907657
              ],
              [
                94.03603553511194,
                23.444238542774603
              ],
              [
                94.03395233023593,
                23.452619279955854
              ],
              [
                94.03395233023593,
                23.459080944829793
              ],
              [
                94.03219005832462,
                23.468479732553643
              ],
              [
                94.02984036004467,
                23.477878521176883
              ],
              [
                94.03387264130942,
                23.481653307654092
              ],
              [
                94.03277748019661,
                23.491389277293358
              ],
              [
                94.03013407232963,
                23.502256624643564
              ],
              [
                94.03013407232964,
                23.506074883449166
              ],
              [
                94.028665511804,
                23.513417686077396
              ],
              [
                94.02719688023188,
                23.524866089898172
              ],
              [
                94.02518238086226,
                23.52799045429606
              ],
              [
                94.02415250513407,
                23.530683378834897
              ],
              [
                94.02265739572232,
                23.53201454633433
              ],
              [
                94.02214245381123,
                23.533357613662996
              ],
              [
                94.02065073304493,
                23.534688781162362
              ],
              [
                94.01864405957576,
                23.537363009695184
              ],
              [
                94.01812138709238,
                23.53915970675513
              ],
              [
                94.01707507175723,
                23.54032186915896
              ],
              [
                94.01695834065498,
                23.54045154600209
              ],
              [
                94.01621961504327,
                23.541272193556956
              ],
              [
                94.01611967967955,
                23.54138324993709
              ],
              [
                94.00970948210698,
                23.543988781057458
              ],
              [
                94.0137590411469,
                23.546273895424015
              ],
              [
                94.01654073416763,
                23.54863492875898
              ],
              [
                94.02115969356504,
                23.555841150448774
              ],
              [
                94.0263328916497,
                23.565449426250098
              ],
              [
                94.03372336464162,
                23.570992743020724
              ],
              [
                94.04000531709177,
                23.573394905050872
              ],
              [
                94.04480924185312,
                23.571547272188923
              ],
              [
                94.04645589962014,
                23.569746240396743
              ],
              [
                94.050721859826,
                23.565080340885064
              ],
              [
                94.05737343903304,
                23.5632327448953
              ],
              [
                94.06402506590409,
                23.5589830983913
              ],
              [
                94.06543335476557,
                23.558077769773327
              ],
              [
                94.06652292029663,
                23.55737724016757
              ],
              [
                94.06919855626842,
                23.555657287653737
              ],
              [
                94.07471622617295,
                23.548720795128645
              ],
              [
                94.07566550465937,
                23.547527413659285
              ],
              [
                94.07584041020682,
                23.547085022755656
              ],
              [
                94.07880668727887,
                23.53958225231913
              ],
              [
                94.08010021005668,
                23.532006598126042
              ],
              [
                94.08046986289389,
                23.52646342614623
              ],
              [
                94.07963501144667,
                23.52490123810173
              ],
              [
                94.07908811302605,
                23.523877874364473
              ],
              [
                94.0796183847807,
                23.521627511600457
              ],
              [
                94.07963554204666,
                23.521607173432347
              ],
              [
                94.08112111864477,
                23.5198460373648
              ],
              [
                94.08173102266863,
                23.518248842310292
              ],
              [
                94.08214507233724,
                23.517164545907114
              ],
              [
                94.0826623335999,
                23.515809960961008
              ],
              [
                94.08344939957021,
                23.515411224048812
              ],
              [
                94.08611859010091,
                23.514058980937246
              ],
              [
                94.08846528014864,
                23.51347892990873
              ],
              [
                94.08955944661126,
                23.513208474091876
              ],
              [
                94.09303410503996,
                23.516485939974192
              ],
              [
                94.0930340402888,
                23.51939466583122
              ],
              [
                94.09303397733623,
                23.522213892057547
              ],
              [
                94.08804507462054,
                23.533484928886416
              ],
              [
                94.08841447564761,
                23.53921288636564
              ],
              [
                94.09374038670956,
                23.54316470438767
              ],
              [
                94.09414209138448,
                23.54346276669339
              ],
              [
                94.09617280373197,
                23.543648179919618
              ],
              [
                94.09636510666441,
                23.543665720296815
              ],
              [
                94.10074411165147,
                23.54406549772461
              ],
              [
                94.10075964024526,
                23.54316499396936
              ],
              [
                94.10314056658392,
                23.54288857025136
              ],
              [
                94.10762598565076,
                23.542367809726667
              ],
              [
                94.10890283859514,
                23.54298003400141
              ],
              [
                94.10956758507605,
                23.543298766325034
              ],
              [
                94.11103616718543,
                23.543321617198895
              ],
              [
                94.11150149979443,
                23.544683352654655
              ],
              [
                94.11246291912846,
                23.545599071140266
              ],
              [
                94.11387430525505,
                23.548780400395234
              ],
              [
                94.11486274202203,
                23.551928909791393
              ],
              [
                94.1157245893184,
                23.554674185665196
              ],
              [
                94.11638471957924,
                23.55468444423177
              ],
              [
                94.11670478200018,
                23.554689418381987
              ],
              [
                94.11716243889549,
                23.556501394024163
              ],
              [
                94.11813156092283,
                23.556966868726075
              ],
              [
                94.1181419067237,
                23.55703612102025
              ],
              [
                94.11868238578353,
                23.56065361157498
              ],
              [
                94.11945439170688,
                23.565820733839875
              ],
              [
                94.11901770340432,
                23.568768046907916
              ],
              [
                94.11797604925535,
                23.57579842775528
              ],
              [
                94.11909927910853,
                23.581934025434975
              ],
              [
                94.12037769777261,
                23.588917328571867
              ],
              [
                94.1194536569608,
                23.598525490159314
              ],
              [
                94.12130119539393,
                23.603514385680402
              ],
              [
                94.11926857018841,
                23.61293775187579
              ],
              [
                94.12203983826801,
                23.621991661286184
              ],
              [
                94.12615398481859,
                23.627935257306316
              ],
              [
                94.12653273969426,
                23.628914143273153
              ],
              [
                94.12755860534541,
                23.631566396871794
              ],
              [
                94.12789663442219,
                23.636730038760344
              ],
              [
                94.12794296209807,
                23.637437751251294
              ],
              [
                94.12889677856357,
                23.63880709766948
              ],
              [
                94.12892280944016,
                23.639044373898805
              ],
              [
                94.1297396177892,
                23.646490011305055
              ],
              [
                94.13061426693493,
                23.64817210505868
              ],
              [
                94.13068576033966,
                23.64830959880895
              ],
              [
                94.13209557355196,
                23.651494513660904
              ],
              [
                94.13356807220885,
                23.650442322155477
              ],
              [
                94.13358574388701,
                23.650429721754282
              ],
              [
                94.1371898399392,
                23.647860089771363
              ],
              [
                94.13780112172445,
                23.647529072708608
              ],
              [
                94.14162434568705,
                23.645458175954104
              ],
              [
                94.14613044016771,
                23.64646427990266
              ],
              [
                94.15088611000601,
                23.64979286684741
              ],
              [
                94.1550997071858,
                23.65274214763207
              ],
              [
                94.16046310288992,
                23.654176562698247
              ],
              [
                94.16143497594345,
                23.654734228701734
              ],
              [
                94.16288880017805,
                23.655568500086257
              ],
              [
                94.16628971959494,
                23.656010310027856
              ],
              [
                94.16643607256675,
                23.65602928932032
              ],
              [
                94.16679901106556,
                23.656076435379255
              ],
              [
                94.17122075993018,
                23.655240914836387
              ],
              [
                94.17151996167695,
                23.65471390042622
              ],
              [
                94.17172788043739,
                23.654347829588698
              ],
              [
                94.17320423988384,
                23.653917180233755
              ],
              [
                94.17519547289282,
                23.652143083136817
              ],
              [
                94.17525954329335,
                23.651975480084385
              ],
              [
                94.17571055959472,
                23.650796879872132
              ],
              [
                94.17689866564098,
                23.650449948406457
              ],
              [
                94.177111372392,
                23.650387905077817
              ],
              [
                94.17713887635814,
                23.650379882225813
              ],
              [
                94.17718666543233,
                23.650365942734147
              ],
              [
                94.1781899527042,
                23.649027034769926
              ],
              [
                94.18309559978218,
                23.64864938965763
              ],
              [
                94.18368334541015,
                23.648390416384636
              ],
              [
                94.18507135366008,
                23.64777895023842
              ],
              [
                94.1851743683025,
                23.64750785230557
              ],
              [
                94.18558320010465,
                23.64643287018089
              ],
              [
                94.18672563228216,
                23.646099158749227
              ],
              [
                94.18705955955107,
                23.646001770265507
              ],
              [
                94.18707677887033,
                23.645971262563766
              ],
              [
                94.18743180693241,
                23.64534584703324
              ],
              [
                94.18756645702645,
                23.645108701205633
              ],
              [
                94.19202972039534,
                23.64201522042611
              ],
              [
                94.193242306887,
                23.641088727163098
              ],
              [
                94.19550484737084,
                23.639360083601044
              ],
              [
                94.19591057021672,
                23.638292287958787
              ],
              [
                94.19601646358899,
                23.638013590754664
              ],
              [
                94.1979921931852,
                23.63714010713028
              ],
              [
                94.19800755000847,
                23.636239731078774
              ],
              [
                94.19948397960205,
                23.635808725592266
              ],
              [
                94.19985463967993,
                23.635153528112877
              ],
              [
                94.19999110100854,
                23.634912543079444
              ],
              [
                94.20539271700034,
                23.634091944987347
              ],
              [
                94.20567960073303,
                23.633584820882852
              ],
              [
                94.20589979973603,
                23.633195765172495
              ],
              [
                94.20731567977488,
                23.633072100297223
              ],
              [
                94.20873326582763,
                23.63294831671152
              ],
              [
                94.21472746490065,
                23.632424901388163
              ],
              [
                94.21533438767194,
                23.631884315308962
              ],
              [
                94.21622244031342,
                23.631093449702984
              ],
              [
                94.2207225012425,
                23.62965837633305
              ],
              [
                94.22163941043051,
                23.629365977058228
              ],
              [
                94.225556951692,
                23.629423252181375
              ],
              [
                94.22556249241516,
                23.62909767241966
              ],
              [
                94.22556411119484,
                23.62900247018792
              ],
              [
                94.2255671077359,
                23.628828140206558
              ],
              [
                94.22557235977665,
                23.62852260003802
              ],
              [
                94.23454304502559,
                23.628260032174794
              ],
              [
                94.2358640402933,
                23.62822136762207
              ],
              [
                94.23587125375542,
                23.62780163783537
              ],
              [
                94.23587951942432,
                23.62732068040516
              ],
              [
                94.24029327871189,
                23.626932035684952
              ],
              [
                94.24032877225511,
                23.626762887597234
              ],
              [
                94.24081893964238,
                23.624426929159487
              ],
              [
                94.24099995158657,
                23.62356429225832
              ],
              [
                94.24121315116605,
                23.622548261593074
              ],
              [
                94.24072274455911,
                23.620831626678292
              ],
              [
                94.24010448043748,
                23.618668050290335
              ],
              [
                94.23541595937904,
                23.61397911014786
              ],
              [
                94.23105119965322,
                23.60961396011624
              ],
              [
                94.23049021515135,
                23.608837044793844
              ],
              [
                94.22979197971614,
                23.607870049663116
              ],
              [
                94.22921753056468,
                23.6070745894208
              ],
              [
                94.2286495079685,
                23.60628802797016
              ],
              [
                94.22866476316835,
                23.606191420997337
              ],
              [
                94.22911358422458,
                23.603349182019187
              ],
              [
                94.22975807977163,
                23.599266660128304
              ],
              [
                94.23189201180698,
                23.593686234632052
              ],
              [
                94.23197913722748,
                23.593458389593092
              ],
              [
                94.232160356915,
                23.59298447835108
              ],
              [
                94.23219975531453,
                23.592531408897468
              ],
              [
                94.23224280136425,
                23.592036386969728
              ],
              [
                94.23252984067967,
                23.58873612777011
              ],
              [
                94.23480474504301,
                23.58719061765292
              ],
              [
                94.24232276528346,
                23.58208307367494
              ],
              [
                94.24491689929552,
                23.582083124037016
              ],
              [
                94.24731130557234,
                23.58208317080174
              ],
              [
                94.25193070114103,
                23.584723058722247
              ],
              [
                94.25507147906559,
                23.586517895084846
              ],
              [
                94.25984487094411,
                23.587752546442918
              ],
              [
                94.26578762789677,
                23.589289656892202
              ],
              [
                94.26942340616533,
                23.58660610868504
              ],
              [
                94.2735478841276,
                23.583561853196993
              ],
              [
                94.27882865641742,
                23.578301703261037
              ],
              [
                94.27372985205109,
                23.56387270606058
              ],
              [
                94.27362214294762,
                23.563226453238258
              ],
              [
                94.27218389856812,
                23.554596994155972
              ],
              [
                94.26909199430015,
                23.548722376136833
              ],
              [
                94.26878280468276,
                23.544702899419338
              ],
              [
                94.26723685299845,
                23.541301806433307
              ],
              [
                94.26785523313254,
                23.53635475906494
              ],
              [
                94.26600009183085,
                23.531716902213304
              ],
              [
                94.26569090131409,
                23.526151475610156
              ],
              [
                94.26644371210766,
                23.525210460993996
              ],
              [
                94.26692766068305,
                23.52460552302654
              ],
              [
                94.27094713829985,
                23.523368760060293
              ],
              [
                94.27206022469966,
                23.522255673660485
              ],
              [
                94.2746574236013,
                23.519658473859526
              ],
              [
                94.2746574236013,
                23.51563899983999
              ],
              [
                94.27434823218522,
                23.512237905954635
              ],
              [
                94.27063794688382,
                23.508836810270626
              ],
              [
                94.26981307341465,
                23.506197216428458
              ],
              [
                94.26909199430014,
                23.50388976380163
              ],
              [
                94.2644541401465,
                23.497087574232246
              ],
              [
                94.26179450761049,
                23.493728038018613
              ],
              [
                94.25857952212732,
                23.489667002730016
              ],
              [
                94.25610599709415,
                23.482864815858584
              ],
              [
                94.25535187329035,
                23.48049471196145
              ],
              [
                94.25394166437638,
                23.476062625389897
              ],
              [
                94.25446490972786,
                23.47318477685604
              ],
              [
                94.25456004540986,
                23.472661532403826
              ],
              [
                94.25672437812763,
                23.46833286606898
              ],
              [
                94.25685128955541,
                23.46592155433631
              ],
              [
                94.25703356864432,
                23.46245824804975
              ],
              [
                94.25703356864432,
                23.458469639662216
              ],
              [
                94.25703356864433,
                23.452873343829822
              ],
              [
                94.25054057139033,
                23.447926294662793
              ],
              [
                94.25548761696001,
                23.438959775073624
              ],
              [
                94.2557968083761,
                23.432466776920247
              ],
              [
                94.25394166437638,
                23.423500253733785
              ],
              [
                94.25340855256269,
                23.407773433197463
              ],
              [
                94.25332328424224,
                23.405258018642716
              ],
              [
                94.2531629630004,
                23.40317384609618
              ],
              [
                94.25270490320878,
                23.39721906790572
              ],
              [
                94.25208652307465,
                23.387324973169044
              ],
              [
                94.25054057139033,
                23.3802135939822
              ],
              [
                94.24868542559199,
                23.377121688814967
              ],
              [
                94.24744866622304,
                23.36444488032704
              ],
              [
                94.24744866622304,
                23.35733350114019
              ],
              [
                94.24843509300521,
                23.35062579614361
              ],
              [
                94.24899461790733,
                23.34682102896738
              ],
              [
                94.25084975920906,
                23.34218317121646
              ],
              [
                94.25177733075924,
                23.338163693599647
              ],
              [
                94.25023137907493,
                23.3319798868623
              ],
              [
                94.24837623777319,
                23.32301336367584
              ],
              [
                94.24839494636971,
                23.322078979761155
              ],
              [
                94.24851406966866,
                23.316129334001623
              ],
              [
                94.24373838002231,
                23.30971817595309
              ],
              [
                94.23971890330479,
                23.302606796766334
              ],
              [
                94.23848214303655,
                23.298587320048856
              ],
              [
                94.23940971458671,
                23.292403513311505
              ],
              [
                94.23848214303655,
                23.284982941809336
              ],
              [
                94.23821443105123,
                23.282305804869058
              ],
              [
                94.23817295431843,
                23.281891036642083
              ],
              [
                94.23774894735608,
                23.281467029679746
              ],
              [
                94.2368710678456,
                23.280589151068515
              ],
              [
                94.23353509566816,
                23.27725318338776
              ],
              [
                94.23504875989244,
                23.27452858832373
              ],
              [
                94.23508104915118,
                23.274470466938574
              ],
              [
                94.23533352392305,
                23.27211403273644
              ],
              [
                94.23600862070136,
                23.265813135168106
              ],
              [
                94.23476346436247,
                23.26282476175339
              ],
              [
                94.2344626681177,
                23.262102849866665
              ],
              [
                94.23322590515149,
                23.257464994813695
              ],
              [
                94.23293192037187,
                23.25592157292232
              ],
              [
                94.23198914398387,
                23.250971993962438
              ],
              [
                94.23083643435406,
                23.247513866871486
              ],
              [
                94.23075238281626,
                23.247261712258236
              ],
              [
                94.23072396783692,
                23.247182150136144
              ],
              [
                94.2305048965838,
                23.24656875224616
              ],
              [
                94.22920643113196,
                23.242933043225435
              ],
              [
                94.22745251841906,
                23.232790194212157
              ],
              [
                94.22647631962651,
                23.23277785281573
              ],
              [
                94.22634095996737,
                23.23238300996797
              ],
              [
                94.22602720718993,
                23.231464907379635
              ],
              [
                94.22601047979987,
                23.23141640963964
              ],
              [
                94.2246781197994,
                23.230147049846558
              ],
              [
                94.22456868040034,
                23.230042650248148
              ],
              [
                94.22311163659282,
                23.229569872151945
              ],
              [
                94.22216842763089,
                23.228368485817047
              ],
              [
                94.22188040895378,
                23.228001629871365
              ],
              [
                94.22167742567274,
                23.227743087373668
              ],
              [
                94.2202203063221,
                23.227270269707212
              ],
              [
                94.21034581500743,
                23.2246908081343
              ],
              [
                94.20280343303206,
                23.21785552711094
              ],
              [
                94.20045172027075,
                23.215724287645802
              ],
              [
                94.19860674220747,
                23.20849812169103
              ],
              [
                94.19751256765095,
                23.204212604827887
              ],
              [
                94.19674143496928,
                23.201192336057492
              ],
              [
                94.19687629460539,
                23.199506591056373
              ],
              [
                94.19735981510343,
                23.193462575837255
              ],
              [
                94.19826668156219,
                23.18771909066357
              ],
              [
                94.19828738755297,
                23.18758795781803
              ],
              [
                94.1980531519315,
                23.185948312065022
              ],
              [
                94.19735981510343,
                23.18109495876537
              ],
              [
                94.20168848143834,
                23.176457101913797
              ],
              [
                94.20572908413,
                23.174768827119745
              ],
              [
                94.20794806774921,
                23.1738416746536
              ],
              [
                94.2084591992327,
                23.17249515662621
              ],
              [
                94.20807993444146,
                23.171532950385426
              ],
              [
                94.20478038570627,
                23.16316191329174
              ],
              [
                94.20508957802168,
                23.15790567810462
              ],
              [
                94.20879986332307,
                23.15512296165542
              ],
              [
                94.2142085371943,
                23.150015289074364
              ],
              [
                94.21474682730428,
                23.14771628737679
              ],
              [
                94.21600515871114,
                23.142340688771817
              ],
              [
                94.21529286237575,
                23.141209392899214
              ],
              [
                94.21343771837606,
                23.122967157808144
              ],
              [
                94.21246224533644,
                23.11906526385088
              ],
              [
                94.2109641960409,
                23.11307306576942
              ],
              [
                94.20168848143832,
                23.10070544869757
              ],
              [
                94.20601714957184,
                23.094830830678337
              ],
              [
                94.20725391073945,
                23.08648268762597
              ],
              [
                94.20725391073944,
                23.082463213606445
              ],
              [
                94.20878262691673,
                23.079961679188205
              ],
              [
                94.20833385532327,
                23.07853434088718
              ],
              [
                94.20765119974311,
                23.076364499821864
              ],
              [
                94.20752142487392,
                23.075256153748562
              ],
              [
                94.20722700032587,
                23.072747509290192
              ],
              [
                94.20625850692458,
                23.072282139808966
              ],
              [
                94.20583918183287,
                23.06821276240915
              ],
              [
                94.19983334013659,
                23.062675026831077
              ],
              [
                94.20014253155266,
                23.05587283726168
              ],
              [
                94.19828738755297,
                23.047524694209297
              ],
              [
                94.19828738755297,
                23.040104126304414
              ],
              [
                94.19735981510343,
                23.036084648687623
              ],
              [
                94.19890576768711,
                23.02711812640046
              ],
              [
                94.19643224625123,
                23.020006747213646
              ],
              [
                94.19659464402764,
                23.01862636341598
              ],
              [
                94.1970506272847,
                23.014750510227937
              ],
              [
                94.19712267107445,
                23.00716549319299
              ],
              [
                94.19354220021245,
                23.00047410639496
              ],
              [
                94.19490930641939,
                22.98600555521228
              ],
              [
                94.19558519100381,
                22.978852427697408
              ],
              [
                94.19569760086362,
                22.97736927657092
              ],
              [
                94.19576137718586,
                22.976527806113445
              ],
              [
                94.19593874867438,
                22.97418754172174
              ],
              [
                94.19628766044725,
                22.969626844903022
              ],
              [
                94.19772755058604,
                22.96594712036336
              ],
              [
                94.19676493425436,
                22.954716589898734
              ],
              [
                94.20061540407774,
                22.943646493990563
              ],
              [
                94.20189889132082,
                22.938352100569034
              ],
              [
                94.20173845676442,
                22.930811600874737
              ],
              [
                94.20125714769928,
                22.928565493702653
              ],
              [
                94.20131638514313,
                22.928227346814648
              ],
              [
                94.20510761392528,
                22.906585739140606
              ],
              [
                94.20569054188509,
                22.89682173763317
              ],
              [
                94.20574936114417,
                22.89583651594249
              ],
              [
                94.2060226264431,
                22.894037518416773
              ],
              [
                94.20730247592859,
                22.885611839414928
              ],
              [
                94.20767459380752,
                22.883162059181743
              ],
              [
                94.20847677378411,
                22.87722592033999
              ],
              [
                94.20892551390143,
                22.875281386426888
              ],
              [
                94.2089580837486,
                22.87514025042226
              ],
              [
                94.20510761392528,
                22.871610653309062
              ],
              [
                94.20414499759362,
                22.869043676124797
              ],
              [
                94.20397775966592,
                22.86104778043081
              ],
              [
                94.20648768026228,
                22.856573069591555
              ],
              [
                94.20798671971141,
                22.854337649962652
              ],
              [
                94.20863094456253,
                22.85414860617328
              ],
              [
                94.20945552035602,
                22.853906639979524
              ],
              [
                94.21103478472759,
                22.852485906299602
              ],
              [
                94.21109519039078,
                22.852431563865657
              ],
              [
                94.21143156021837,
                22.852128959983588
              ],
              [
                94.21184111957207,
                22.85200980161114
              ],
              [
                94.21290000023488,
                22.851701729851012
              ],
              [
                94.21292268023757,
                22.85166149957859
              ],
              [
                94.21293383992486,
                22.851641430307833
              ],
              [
                94.21340364036577,
                22.850805239770068
              ],
              [
                94.21472318592635,
                22.850416980859055
              ],
              [
                94.21486873130699,
                22.850374210901172
              ],
              [
                94.21523200075633,
                22.849806437417225
              ],
              [
                94.21687058441,
                22.84724540744963
              ],
              [
                94.21786642709402,
                22.845903698097235
              ],
              [
                94.2179044126586,
                22.843648737998937
              ],
              [
                94.21830203980734,
                22.83892365680139
              ],
              [
                94.2185111951356,
                22.836438240032805
              ],
              [
                94.21753896684987,
                22.836423429997343
              ],
              [
                94.21765955964106,
                22.82909310006658
              ],
              [
                94.21767234710121,
                22.828301995240963
              ],
              [
                94.21819809526598,
                22.82605190227355
              ],
              [
                94.21917868994467,
                22.82561624009747
              ],
              [
                94.21961561656755,
                22.824458073381436
              ],
              [
                94.21968649573523,
                22.824270194214144
              ],
              [
                94.2236193596458,
                22.822069140378574
              ],
              [
                94.22429697812312,
                22.821767278437235
              ],
              [
                94.22558028010587,
                22.821195600096924
              ],
              [
                94.22610660023946,
                22.818944970234202
              ],
              [
                94.22656090086498,
                22.81833406256698
              ],
              [
                94.22710236018584,
                22.817605949854745
              ],
              [
                94.22713295961847,
                22.81580163014116
              ],
              [
                94.22863595968188,
                22.81311602968105
              ],
              [
                94.22869250815279,
                22.80977027377918
              ],
              [
                94.22871917664874,
                22.808152418599267
              ],
              [
                94.22774621631487,
                22.80813762115434
              ],
              [
                94.22744323921415,
                22.804616109845668
              ],
              [
                94.22740151966445,
                22.804123320035213
              ],
              [
                94.22730189906343,
                22.80297175344373
              ],
              [
                94.22693064003705,
                22.798650779909625
              ],
              [
                94.22617212214578,
                22.795648102777776
              ],
              [
                94.2260151104091,
                22.79502615143576
              ],
              [
                94.22617947860012,
                22.793170166570015
              ],
              [
                94.22622173324646,
                22.792693053741466
              ],
              [
                94.2265738133309,
                22.788717513402556
              ],
              [
                94.2266140166236,
                22.788263553620144
              ],
              [
                94.22691357719988,
                22.787994886554813
              ],
              [
                94.22760203970245,
                22.787378279883747
              ],
              [
                94.22773719521547,
                22.78680033057083
              ],
              [
                94.22812835983599,
                22.78512765002109
              ],
              [
                94.22911656008127,
                22.784238809573488
              ],
              [
                94.22963891960052,
                22.781988179710762
              ],
              [
                94.22977276030467,
                22.781868309075268
              ],
              [
                94.23062711984574,
                22.781103120013032
              ],
              [
                94.23105129138406,
                22.778615408174563
              ],
              [
                94.23110740818036,
                22.77828658455824
              ],
              [
                94.23116495399951,
                22.77794838640897
              ],
              [
                94.22766672164192,
                22.772279868720997
              ],
              [
                94.23223024233187,
                22.764864151759248
              ],
              [
                94.23650854033691,
                22.763152833636415
              ],
              [
                94.24278337465306,
                22.75887453563138
              ],
              [
                94.2470616726581,
                22.753740576766234
              ],
              [
                94.25171006956414,
                22.754825203220605
              ],
              [
                94.25561826776892,
                22.755737116674656
              ],
              [
                94.25800908844873,
                22.754227125281663
              ],
              [
                94.26103744662095,
                22.752314478630346
              ],
              [
                94.26185235919904,
                22.751744039555827
              ],
              [
                94.26674184276192,
                22.748321400612216
              ],
              [
                94.27073492077999,
                22.74775096063837
              ],
              [
                94.27187579982838,
                22.744898761668594
              ],
              [
                94.27073492078,
                22.741190903637346
              ],
              [
                94.26909205455472,
                22.7400956597869
              ],
              [
                94.26731228273572,
                22.738909146439994
              ],
              [
                94.2658861837005,
                22.733775190272873
              ],
              [
                94.2644600828666,
                22.7300673313423
              ],
              [
                94.26274876474378,
                22.728070791433925
              ],
              [
                94.25906209563927,
                22.725802074406257
              ],
              [
                94.25904090671253,
                22.72578903423658
              ],
              [
                94.25686884791907,
                22.726223444556357
              ],
              [
                94.2547626087075,
                22.726644693298002
              ],
              [
                94.25390695144472,
                22.727378113808985
              ],
              [
                94.25276607239635,
                22.72835600962219
              ],
              [
                94.25113625443463,
                22.72813870104029
              ],
              [
                94.24848777439132,
                22.727785571447043
              ],
              [
                94.24677645267121,
                22.724933371577887
              ],
              [
                94.24550530502586,
                22.722532315713867
              ],
              [
                94.24420947368833,
                22.72008463539766
              ],
              [
                94.23707897941141,
                22.72065507357285
              ],
              [
                94.23536765859063,
                22.719228976336243
              ],
              [
                94.23764941938526,
                22.712383698449013
              ],
              [
                94.23622332035002,
                22.70753496136945
              ],
              [
                94.23593809766517,
                22.70268622428989
              ],
              [
                94.23542368365612,
                22.69805649641024
              ],
              [
                94.23536765859063,
                22.697552268122713
              ],
              [
                94.23958625600096,
                22.691488034345337
              ],
              [
                94.23940987556536,
                22.689327610081197
              ],
              [
                94.23928727998407,
                22.6878257701432
              ],
              [
                94.23927109938177,
                22.687627762811083
              ],
              [
                94.23902726709476,
                22.684641138577717
              ],
              [
                94.23974514911941,
                22.683675204647052
              ],
              [
                94.23992854786425,
                22.68342860244809
              ],
              [
                94.24002275994248,
                22.683301920347404
              ],
              [
                94.24056060039148,
                22.68015101965387
              ],
              [
                94.24155599970969,
                22.6788120001737
              ],
              [
                94.2430211167312,
                22.67838057380449
              ],
              [
                94.24395155711875,
                22.67373401601208
              ],
              [
                94.24398991320402,
                22.673542467610858
              ],
              [
                94.24403657902496,
                22.673309422691773
              ],
              [
                94.24406643831556,
                22.673160307002604
              ],
              [
                94.24410409292959,
                22.67297226236008
              ],
              [
                94.2442918659769,
                22.672034538363285
              ],
              [
                94.24535035543461,
                22.666748522126618
              ],
              [
                94.24905821256652,
                22.662185005034022
              ],
              [
                94.24948925942188,
                22.657874538279373
              ],
              [
                94.24991387162795,
                22.653628409923204
              ],
              [
                94.249649235324,
                22.65256986200956
              ],
              [
                94.24848777439132,
                22.647924011084278
              ],
              [
                94.2521722842236,
                22.63997322538409
              ],
              [
                94.2539069496461,
                22.636229998815452
              ],
              [
                94.25561826776892,
                22.62995516090199
              ],
              [
                94.25508585742642,
                22.628357928975273
              ],
              [
                94.2547626087075,
                22.6273881810198
              ],
              [
                94.24991387162795,
                22.623965544774133
              ],
              [
                94.24900092395353,
                22.620835439104265
              ],
              [
                94.24791733171953,
                22.61712026778616
              ],
              [
                94.24563557542155,
                22.613127189768015
              ],
              [
                94.24658736031847,
                22.60893006007427
              ],
              [
                94.24656294012766,
                22.60887990578305
              ],
              [
                94.2457195990803,
                22.607147834904705
              ],
              [
                94.24282643958855,
                22.601205810000195
              ],
              [
                94.24181102405957,
                22.600232822686667
              ],
              [
                94.2409116003901,
                22.599370979886878
              ],
              [
                94.24019595138213,
                22.59756315371665
              ],
              [
                94.2385769999287,
                22.593473459732422
              ],
              [
                94.2378751770978,
                22.592292077917136
              ],
              [
                94.23753408582947,
                22.591717917447962
              ],
              [
                94.23668442794406,
                22.590287462996056
              ],
              [
                94.23627669601281,
                22.590090874794097
              ],
              [
                94.23571952283778,
                22.589822232909807
              ],
              [
                94.23556638178314,
                22.58950484687123
              ],
              [
                94.23550008016464,
                22.589367569857536
              ],
              [
                94.23535788026203,
                22.5890730895515
              ],
              [
                94.23485462414163,
                22.588029726690596
              ],
              [
                94.23362913057997,
                22.585489888347688
              ],
              [
                94.23243072010172,
                22.583005200029994
              ]
            ]
          ]
        ]
      },
      "geometry_name": "the_geom",
      "properties": {
        "ST": "Sagaing",
        "ST_PCODE": "MMR005",
        "DT": "Kale",
        "DT_PCODE": "MMR005D005",
        "TS": "Kale",
        "TS_PCODE": "MMR005027",
        "TS_MMR": "ကလေး",
        "PCode_V": 9.4
      }
    }
  ]
}